STARLINK-31502          
1 59301U 24056F   26067.81125089 -.00005629  00000+0 -19549-3 0  9994
2 59301  43.0012 228.4246 0001841 269.2505  90.8136 15.27529889111108
TRANSPORTER-12 OBJECT BT
1 62674U 25009BT  26068.71416991  .00013824  00000+0  51029-3 0  9998
2 62674  97.4094 151.5992 0003682 313.5044  46.5889 15.27872239121360
